TITAN 3C TRANSTAGE R/B  
1 11940U 73040B   26073.01760674  .00000114  00000+0  00000+0 0  9992
2 11940   1.2579 238.0767 0031456  84.6494 274.6935  0.99556295 25685
GOES 4                  
1 11964U 80074A   26073.55052204 -.00000048  00000+0  00000+0 0  9992
2 11964   8.1902 303.6614 0032318 103.3413 232.8625  0.99227917126494
GOES 4 AKM              
1 11970U 80074C   26072.85680179 -.00000181  00000+0  00000+0 0  9997
2 11970  16.5913 315.0041 1635772 263.5922 287.7713  0.81535573 37742
RADUGA 7                
1 12003U 80081A   26073.91482321 -.00000290  00000+0  00000+0 0  9991
2 12003   6.1774 290.0585 0011704 321.5283 198.7659  1.00339576122362
SBS 1                   
1 12065U 80091A   26073.35444392 -.00000098  00000+0  00000+0 0  9990
2 12065  10.1570 318.4093 0004003 187.9937 152.3580  0.99829052 45523
SL-6 R/B(2)             
1 12086U 80095E   26073.45275617 -.00000362  00000+0  00000+0 0  9994
2 12086  64.9332 148.0239 6773577  33.8069 355.0777  1.99098895329246
OPS 5805                
1 12093U 80100A   26073.20924418 -.00000235  00000+0  00000+0 0  9991
2 12093  63.9381 210.7136 6451590 268.7961  22.1079  2.00543462 50255
EKRAN 6                 
1 12120U 80104A   26073.76989360  .00000085  00000+0  00000+0 0  9996
2 12120   6.4707 291.4973 0007281  63.3473 148.7777  1.00249431126465
COSMOS 1247             
1 12303U 81016A   26073.80525558 -.00000856  00000+0  00000+0 0  9999
2 12303  69.0881   1.7261 6246417 341.7874   3.3023  2.02512621333263
ESIAFI 1 (COMSTAR 4)    
1 12309U 81018A   26073.19164024 -.00000055  00000+0  00000+0 0  9997
2 12309   8.8844 311.8168 0003871  56.1407 303.8671  1.00262808166490
RADUGA 8                
1 12351U 81027A   26073.68424297  .00000074  00000+0  00000+0 0  9999
2 12351   6.5199 290.3144 0079776 272.2811  79.3026  1.00400493121592
ATLAS CENTAUR R/B       
1 12363U 81018B   26073.65691991 -.00000190  00000+0  66182-3 0  9993
2 12363  20.8433   6.4275 7179265  13.0242 358.3293  2.22127151365325
TITAN 3C TRANSTAGE R/B  
1 12371U 81025C   26073.35514128  .00000090  00000+0  00000+0 0  9994
2 12371   6.8713 299.4408 0057986 325.0472  34.5004  1.01333597 26089
COSMOS 1261             
1 12376U 81031A   26070.41695240 -.00000271  00000+0  00000+0 0  9997
2 12376  68.7599  95.1607 5910593 353.1477   1.4892  2.00790948225513
SL-6 R/B(2)             
1 12384U 81031D   26072.23208093  .00000677  00000+0  00000+0 0  9993
2 12384  67.7742  76.2799 6152707   1.1774 359.7719  2.03533371334166
SL-12 R/B(2)            
1 12447U 80081F   26073.88552976 -.00000173  00000+0  00000+0 0  9993
2 12447   6.3998 291.1179 0005923  44.7902 316.0911  0.99979100163443
SL-12 R/B(2)            
1 12471U 80104E   26073.91421654 -.00000201  00000+0  00000+0 0  9990
2 12471   5.7255 287.9362 0030469 194.6806 324.3025  1.01341398119004
