[{"OBJECT_NAME":"TITAN 3C TRANSTAGE R/B","OBJECT_ID":"1973-040B","EPOCH":"2026-03-14T00:25:21.222336","MEAN_MOTION":0.99556295,"ECCENTRICITY":0.00314568,"INCLINATION":1.2579,"RA_OF_ASC_NODE":238.0767,"ARG_OF_PERICENTER":84.6494,"MEAN_ANOMALY":274.6935,"EPHEMERIS_TYPE":0,"CLASSIFICATION_TYPE":"U","NORAD_CAT_ID":11940,"ELEMENT_SET_NO":999,"REV_AT_EPOCH":2568,"BSTAR":0,"MEAN_MOTION_DOT":1.14e-6,"MEAN_MOTION_DDOT":0},{"OBJECT_NAME":"GOES 4","OBJECT_ID":"1980-074A","EPOCH":"2026-03-14T13:12:45.104256","MEAN_MOTION":0.99227917,"ECCENTRICITY":0.00323181,"INCLINATION":8.1902,"RA_OF_ASC_NODE":303.6614,"ARG_OF_PERICENTER":103.3413,"MEAN_ANOMALY":232.8625,"EPHEMERIS_TYPE":0,"CLASSIFICATION_TYPE":"U","NORAD_CAT_ID":11964,"ELEMENT_SET_NO":999,"REV_AT_EPOCH":12649,"BSTAR":0,"MEAN_MOTION_DOT":-4.8e-7,"MEAN_MOTION_DDOT":0},{"OBJECT_NAME":"GOES 4 AKM","OBJECT_ID":"1980-074C","EPOCH":"2026-03-13T20:33:47.674656","MEAN_MOTION":0.81535573,"ECCENTRICITY":0.16357721,"INCLINATION":16.5913,"RA_OF_ASC_NODE":315.0041,"ARG_OF_PERICENTER":263.5922,"MEAN_ANOMALY":287.7713,"EPHEMERIS_TYPE":0,"CLASSIFICATION_TYPE":"U","NORAD_CAT_ID":11970,"ELEMENT_SET_NO":999,"REV_AT_EPOCH":3774,"BSTAR":0,"MEAN_MOTION_DOT":-1.81e-6,"MEAN_MOTION_DDOT":0},{"OBJECT_NAME":"RADUGA 7","OBJECT_ID":"1980-081A","EPOCH":"2026-03-14T21:57:20.725344","MEAN_MOTION":1.00339576,"ECCENTRICITY":0.00117046,"INCLINATION":6.1774,"RA_OF_ASC_NODE":290.0585,"ARG_OF_PERICENTER":321.5283,"MEAN_ANOMALY":198.7659,"EPHEMERIS_TYPE":0,"CLASSIFICATION_TYPE":"U","NORAD_CAT_ID":12003,"ELEMENT_SET_NO":999,"REV_AT_EPOCH":12236,"BSTAR":0,"MEAN_MOTION_DOT":-2.9e-6,"MEAN_MOTION_DDOT":0},{"OBJECT_NAME":"SBS 1","OBJECT_ID":"1980-091A","EPOCH":"2026-03-14T08:30:23.954688","MEAN_MOTION":0.99829052,"ECCENTRICITY":0.00040031,"INCLINATION":10.157,"RA_OF_ASC_NODE":318.4093,"ARG_OF_PERICENTER":187.9937,"MEAN_ANOMALY":152.358,"EPHEMERIS_TYPE":0,"CLASSIFICATION_TYPE":"U","NORAD_CAT_ID":12065,"ELEMENT_SET_NO":999,"REV_AT_EPOCH":4552,"BSTAR":0,"MEAN_MOTION_DOT":-9.8e-7,"MEAN_MOTION_DDOT":0},{"OBJECT_NAME":"SL-6 R/B(2)","OBJECT_ID":"1980-095E","EPOCH":"2026-03-14T10:51:58.133088","MEAN_MOTION":1.99098895,"ECCENTRICITY":0.67735775,"INCLINATION":64.9332,"RA_OF_ASC_NODE":148.0239,"ARG_OF_PERICENTER":33.8069,"MEAN_ANOMALY":355.0777,"EPHEMERIS_TYPE":0,"CLASSIFICATION_TYPE":"U","NORAD_CAT_ID":12086,"ELEMENT_SET_NO":999,"REV_AT_EPOCH":32924,"BSTAR":0,"MEAN_MOTION_DOT":-3.62e-6,"MEAN_MOTION_DDOT":0},{"OBJECT_NAME":"OPS 5805","OBJECT_ID":"1980-100A","EPOCH":"2026-03-14T05:01:18.697152","MEAN_MOTION":2.00543462,"ECCENTRICITY":0.64515904,"INCLINATION":63.9381,"RA_OF_ASC_NODE":210.7136,"ARG_OF_PERICENTER":268.7961,"MEAN_ANOMALY":22.1079,"EPHEMERIS_TYPE":0,"CLASSIFICATION_TYPE":"U","NORAD_CAT_ID":12093,"ELEMENT_SET_NO":999,"REV_AT_EPOCH":5025,"BSTAR":0,"MEAN_MOTION_DOT":-2.35e-6,"MEAN_MOTION_DDOT":0},{"OBJECT_NAME":"EKRAN 6","OBJECT_ID":"1980-104A","EPOCH":"2026-03-14T18:28:38.807040","MEAN_MOTION":1.00249431,"ECCENTRICITY":0.0007281,"INCLINATION":6.4707,"RA_OF_ASC_NODE":291.4973,"ARG_OF_PERICENTER":63.3473,"MEAN_ANOMALY":148.7777,"EPHEMERIS_TYPE":0,"CLASSIFICATION_TYPE":"U","NORAD_CAT_ID":12120,"ELEMENT_SET_NO":999,"REV_AT_EPOCH":12646,"BSTAR":0,"MEAN_MOTION_DOT":8.5e-7,"MEAN_MOTION_DDOT":0},{"OBJECT_NAME":"COSMOS 1247","OBJECT_ID":"1981-016A","EPOCH":"2026-03-14T19:19:34.082112","MEAN_MOTION":2.02512621,"ECCENTRICITY":0.62464173,"INCLINATION":69.0881,"RA_OF_ASC_NODE":1.7261,"ARG_OF_PERICENTER":341.7874,"MEAN_ANOMALY":3.3023,"EPHEMERIS_TYPE":0,"CLASSIFICATION_TYPE":"U","NORAD_CAT_ID":12303,"ELEMENT_SET_NO":999,"REV_AT_EPOCH":33326,"BSTAR":0,"MEAN_MOTION_DOT":-8.56e-6,"MEAN_MOTION_DDOT":0},{"OBJECT_NAME":"ESIAFI 1 (COMSTAR 4)","OBJECT_ID":"1981-018A","EPOCH":"2026-03-14T04:35:57.716736","MEAN_MOTION":1.00262808,"ECCENTRICITY":0.00038712,"INCLINATION":8.8844,"RA_OF_ASC_NODE":311.8168,"ARG_OF_PERICENTER":56.1407,"MEAN_ANOMALY":303.8671,"EPHEMERIS_TYPE":0,"CLASSIFICATION_TYPE":"U","NORAD_CAT_ID":12309,"ELEMENT_SET_NO":999,"REV_AT_EPOCH":16649,"BSTAR":0,"MEAN_MOTION_DOT":-5.5e-7,"MEAN_MOTION_DDOT":0},{"OBJECT_NAME":"RADUGA 8","OBJECT_ID":"1981-027A","EPOCH":"2026-03-14T16:25:18.592608","MEAN_MOTION":1.00400493,"ECCENTRICITY":0.00797767,"INCLINATION":6.5199,"RA_OF_ASC_NODE":290.3144,"ARG_OF_PERICENTER":272.2811,"MEAN_ANOMALY":79.3026,"EPHEMERIS_TYPE":0,"CLASSIFICATION_TYPE":"U","NORAD_CAT_ID":12351,"ELEMENT_SET_NO":999,"REV_AT_EPOCH":12159,"BSTAR":0,"MEAN_MOTION_DOT":7.4e-7,"MEAN_MOTION_DDOT":0},{"OBJECT_NAME":"ATLAS CENTAUR R/B","OBJECT_ID":"1981-018B","EPOCH":"2026-03-14T15:45:57.880224","MEAN_MOTION":2.22127151,"ECCENTRICITY":0.71792654,"INCLINATION":20.8433,"RA_OF_ASC_NODE":6.4275,"ARG_OF_PERICENTER":13.0242,"MEAN_ANOMALY":358.3293,"EPHEMERIS_TYPE":0,"CLASSIFICATION_TYPE":"U","NORAD_CAT_ID":12363,"ELEMENT_SET_NO":999,"REV_AT_EPOCH":36532,"BSTAR":0.00066182201,"MEAN_MOTION_DOT":-1.9e-6,"MEAN_MOTION_DDOT":0},{"OBJECT_NAME":"TITAN 3C TRANSTAGE R/B","OBJECT_ID":"1981-025C","EPOCH":"2026-03-14T08:31:24.206592","MEAN_MOTION":1.01333597,"ECCENTRICITY":0.00579862,"INCLINATION":6.8713,"RA_OF_ASC_NODE":299.4408,"ARG_OF_PERICENTER":325.0472,"MEAN_ANOMALY":34.5004,"EPHEMERIS_TYPE":0,"CLASSIFICATION_TYPE":"U","NORAD_CAT_ID":12371,"ELEMENT_SET_NO":999,"REV_AT_EPOCH":2608,"BSTAR":0,"MEAN_MOTION_DOT":9.0e-7,"MEAN_MOTION_DDOT":0},{"OBJECT_NAME":"COSMOS 1261","OBJECT_ID":"1981-031A","EPOCH":"2026-03-11T10:00:24.687360","MEAN_MOTION":2.00790948,"ECCENTRICITY":0.59105938,"INCLINATION":68.7599,"RA_OF_ASC_NODE":95.1607,"ARG_OF_PERICENTER":353.1477,"MEAN_ANOMALY":1.4892,"EPHEMERIS_TYPE":0,"CLASSIFICATION_TYPE":"U","NORAD_CAT_ID":12376,"ELEMENT_SET_NO":999,"REV_AT_EPOCH":22551,"BSTAR":0,"MEAN_MOTION_DOT":-2.71e-6,"MEAN_MOTION_DDOT":0},{"OBJECT_NAME":"SL-6 R/B(2)","OBJECT_ID":"1981-031D","EPOCH":"2026-03-13T05:34:11.792352","MEAN_MOTION":2.03533371,"ECCENTRICITY":0.61527073,"INCLINATION":67.7742,"RA_OF_ASC_NODE":76.2799,"ARG_OF_PERICENTER":1.1774,"MEAN_ANOMALY":359.7719,"EPHEMERIS_TYPE":0,"CLASSIFICATION_TYPE":"U","NORAD_CAT_ID":12384,"ELEMENT_SET_NO":999,"REV_AT_EPOCH":33416,"BSTAR":0,"MEAN_MOTION_DOT":6.77e-6,"MEAN_MOTION_DDOT":0},{"OBJECT_NAME":"SL-12 R/B(2)","OBJECT_ID":"1980-081F","EPOCH":"2026-03-14T21:15:09.771264","MEAN_MOTION":0.999791,"ECCENTRICITY":0.00059232,"INCLINATION":6.3998,"RA_OF_ASC_NODE":291.1179,"ARG_OF_PERICENTER":44.7902,"MEAN_ANOMALY":316.0911,"EPHEMERIS_TYPE":0,"CLASSIFICATION_TYPE":"U","NORAD_CAT_ID":12447,"ELEMENT_SET_NO":999,"REV_AT_EPOCH":16344,"BSTAR":0,"MEAN_MOTION_DOT":-1.73e-6,"MEAN_MOTION_DDOT":0},{"OBJECT_NAME":"SL-12 R/B(2)","OBJECT_ID":"1980-104E","EPOCH":"2026-03-14T21:56:28.309056","MEAN_MOTION":1.01341398,"ECCENTRICITY":0.0030469,"INCLINATION":5.7255,"RA_OF_ASC_NODE":287.9362,"ARG_OF_PERICENTER":194.6806,"MEAN_ANOMALY":324.3025,"EPHEMERIS_TYPE":0,"CLASSIFICATION_TYPE":"U","NORAD_CAT_ID":12471,"ELEMENT_SET_NO":999,"REV_AT_EPOCH":11900,"BSTAR":0,"MEAN_MOTION_DOT":-2.01e-6,"MEAN_MOTION_DDOT":0}]
